ONEWEB-0323             
1 49106U 21075AH  25283.28775120 -.00000304  00000+0 -88070-3 0  9991
2 49106  87.8952  40.2864 0002021  79.5311 280.6045 13.12444122201772
ONEWEB-0329             
1 49107U 21075AJ  25282.44061177  .00000062  00000+0  12766-3 0  9997
2 49107  87.9085  55.7439 0001841  93.8438 266.2904 13.17650864200565
ONEWEB-0330             
1 49108U 21075AK  25282.44145075  .00000009  00000+0 -10149-4 0  9994
2 49108  87.9091  55.7486 0001935  95.5152 264.6200 13.17650264200601
ONEWEB-0292             
1 49186U 21083A   25283.22687464  .00000317  00000+0  83213-3 0  9991
2 49186  87.9047   9.9338 0001779  95.1802 264.9530 13.13470585198112
ONEWEB-0303             
1 49187U 21083B   25283.21507829  .00000038  00000+0  64620-4 0  9999
2 49187  87.9230  25.0947 0001776  93.7755 266.3580 13.18686844197033
ONEWEB-0306             
1 49188U 21083C   25283.20518230 -.00000078  00000+0 -22961-3 0  9994
2 49188  87.9233  25.0822 0001910 106.3996 253.7346 13.18687241197073
ONEWEB-0307             
1 49189U 21083D   25283.22093202 -.00000431  00000+0 -12148-2 0  9992
2 49189  87.9034   9.9301 0001809 101.4787 258.6545 13.13470503198114
ONEWEB-0320             
1 49190U 21083E   25283.21182945  .00000080  00000+0  17049-3 0  9990
2 49190  87.9233  25.1092 0001720 101.1216 259.0109 13.18667215197034
ONEWEB-0321             
1 49191U 21083F   25283.12775907  .00000143  00000+0  31967-3 0  9992
2 49191  87.9229 324.2996 0001992 106.4590 253.6762 13.20770517203823
ONEWEB-0322             
1 49192U 21083G   25283.21672148  .00000104  00000+0  24920-3 0  9994
2 49192  87.9042   9.9299 0001761 117.3182 242.8127 13.13470824198101
ONEWEB-0324             
1 49193U 21083H   25283.19856744 -.00000264  00000+0 -70247-3 0  9990
2 49193  87.9231  25.0910 0001924 100.7219 259.4130 13.18685771197054
ONEWEB-0325             
1 49194U 21083J   25283.27776414  .00000052  00000+0  98219-4 0  9998
2 49194  87.9229  25.0931 0001749 103.0241 257.1087 13.18686505197075
ONEWEB-0326             
1 49195U 21083K   25283.29272701  .00000129  00000+0  29525-3 0  9999
2 49195  87.9231  25.0780 0001654  90.1302 270.0020 13.18688712197062
ONEWEB-0327             
1 49196U 21083L   25283.21659480  .00000028  00000+0  38349-4 0  9998
2 49196  87.9221  25.1174 0001540  89.2448 270.8861 13.18686460197074
ONEWEB-0328             
1 49197U 21083M   25283.20655133 -.00000156  00000+0 -46098-3 0  9992
2 49197  87.9050   9.8718 0001964  99.9574 260.1777 13.13470830198083
ONEWEB-0331             
1 49198U 21083N   25283.28600495  .00000100  00000+0  22075-3 0  9998
2 49198  87.9233  25.0716 0001929  89.8631 270.2722 13.18687143197070
ONEWEB-0333             
1 49199U 21083P   25283.20147426 -.00000175  00000+0 -51365-3 0  9999
2 49199  87.9036   9.9367 0001709 102.1140 258.0181 13.13469280198096
