[{"OBJECT_NAME":"ONEWEB-0323","OBJECT_ID":"2021-075AH","EPOCH":"2025-10-10T06:54:21.703680","MEAN_MOTION":13.12444122,"ECCENTRICITY":0.00020211,"INCLINATION":87.8952,"RA_OF_ASC_NODE":40.2864,"ARG_OF_PERICENTER":79.5311,"MEAN_ANOMALY":280.6045,"EPHEMERIS_TYPE":0,"CLASSIFICATION_TYPE":"U","NORAD_CAT_ID":49106,"ELEMENT_SET_NO":999,"REV_AT_EPOCH":20177,"BSTAR":-0.00088069558,"MEAN_MOTION_DOT":-3.04e-6,"MEAN_MOTION_DDOT":0},{"OBJECT_NAME":"ONEWEB-0329","OBJECT_ID":"2021-075AJ","EPOCH":"2025-10-09T10:34:28.856928","MEAN_MOTION":13.17650864,"ECCENTRICITY":0.0001841,"INCLINATION":87.9085,"RA_OF_ASC_NODE":55.7439,"ARG_OF_PERICENTER":93.8438,"MEAN_ANOMALY":266.2904,"EPHEMERIS_TYPE":0,"CLASSIFICATION_TYPE":"U","NORAD_CAT_ID":49107,"ELEMENT_SET_NO":999,"REV_AT_EPOCH":20056,"BSTAR":0.00012766,"MEAN_MOTION_DOT":6.2e-7,"MEAN_MOTION_DDOT":0},{"OBJECT_NAME":"ONEWEB-0330","OBJECT_ID":"2021-075AK","EPOCH":"2025-10-09T10:35:41.344800","MEAN_MOTION":13.17650264,"ECCENTRICITY":0.0001935,"INCLINATION":87.9091,"RA_OF_ASC_NODE":55.7486,"ARG_OF_PERICENTER":95.5152,"MEAN_ANOMALY":264.62,"EPHEMERIS_TYPE":0,"CLASSIFICATION_TYPE":"U","NORAD_CAT_ID":49108,"ELEMENT_SET_NO":999,"REV_AT_EPOCH":20060,"BSTAR":-1.0149e-5,"MEAN_MOTION_DOT":9.0e-8,"MEAN_MOTION_DDOT":0},{"OBJECT_NAME":"ONEWEB-0292","OBJECT_ID":"2021-083A","EPOCH":"2025-10-10T05:26:41.968896","MEAN_MOTION":13.13470585,"ECCENTRICITY":0.00017797,"INCLINATION":87.9047,"RA_OF_ASC_NODE":9.9338,"ARG_OF_PERICENTER":95.1802,"MEAN_ANOMALY":264.953,"EPHEMERIS_TYPE":0,"CLASSIFICATION_TYPE":"U","NORAD_CAT_ID":49186,"ELEMENT_SET_NO":999,"REV_AT_EPOCH":19811,"BSTAR":0.00083213374,"MEAN_MOTION_DOT":3.17e-6,"MEAN_MOTION_DDOT":0},{"OBJECT_NAME":"ONEWEB-0303","OBJECT_ID":"2021-083B","EPOCH":"2025-10-10T05:09:42.764256","MEAN_MOTION":13.18686844,"ECCENTRICITY":0.00017764,"INCLINATION":87.923,"RA_OF_ASC_NODE":25.0947,"ARG_OF_PERICENTER":93.7755,"MEAN_ANOMALY":266.358,"EPHEMERIS_TYPE":0,"CLASSIFICATION_TYPE":"U","NORAD_CAT_ID":49187,"ELEMENT_SET_NO":999,"REV_AT_EPOCH":19703,"BSTAR":6.4619959e-5,"MEAN_MOTION_DOT":3.8e-7,"MEAN_MOTION_DDOT":0},{"OBJECT_NAME":"ONEWEB-0306","OBJECT_ID":"2021-083C","EPOCH":"2025-10-10T04:55:27.750720","MEAN_MOTION":13.18687241,"ECCENTRICITY":0.000191,"INCLINATION":87.9233,"RA_OF_ASC_NODE":25.0822,"ARG_OF_PERICENTER":106.3996,"MEAN_ANOMALY":253.7346,"EPHEMERIS_TYPE":0,"CLASSIFICATION_TYPE":"U","NORAD_CAT_ID":49188,"ELEMENT_SET_NO":999,"REV_AT_EPOCH":19707,"BSTAR":-0.00022960636,"MEAN_MOTION_DOT":-7.8e-7,"MEAN_MOTION_DDOT":0},{"OBJECT_NAME":"ONEWEB-0307","OBJECT_ID":"2021-083D","EPOCH":"2025-10-10T05:18:08.526528","MEAN_MOTION":13.13470503,"ECCENTRICITY":0.00018091,"INCLINATION":87.9034,"RA_OF_ASC_NODE":9.9301,"ARG_OF_PERICENTER":101.4787,"MEAN_ANOMALY":258.6545,"EPHEMERIS_TYPE":0,"CLASSIFICATION_TYPE":"U","NORAD_CAT_ID":49189,"ELEMENT_SET_NO":999,"REV_AT_EPOCH":19811,"BSTAR":-0.0012147928,"MEAN_MOTION_DOT":-4.31e-6,"MEAN_MOTION_DDOT":0},{"OBJECT_NAME":"ONEWEB-0320","OBJECT_ID":"2021-083E","EPOCH":"2025-10-10T05:05:02.064480","MEAN_MOTION":13.18667215,"ECCENTRICITY":0.00017205,"INCLINATION":87.9233,"RA_OF_ASC_NODE":25.1092,"ARG_OF_PERICENTER":101.1216,"MEAN_ANOMALY":259.0109,"EPHEMERIS_TYPE":0,"CLASSIFICATION_TYPE":"U","NORAD_CAT_ID":49190,"ELEMENT_SET_NO":999,"REV_AT_EPOCH":19703,"BSTAR":0.00017048501,"MEAN_MOTION_DOT":8.0e-7,"MEAN_MOTION_DDOT":0},{"OBJECT_NAME":"ONEWEB-0321","OBJECT_ID":"2021-083F","EPOCH":"2025-10-10T03:03:58.383648","MEAN_MOTION":13.20770517,"ECCENTRICITY":0.00019925,"INCLINATION":87.9229,"RA_OF_ASC_NODE":324.2996,"ARG_OF_PERICENTER":106.459,"MEAN_ANOMALY":253.6762,"EPHEMERIS_TYPE":0,"CLASSIFICATION_TYPE":"U","NORAD_CAT_ID":49191,"ELEMENT_SET_NO":999,"REV_AT_EPOCH":20382,"BSTAR":0.00031967104,"MEAN_MOTION_DOT":1.43e-6,"MEAN_MOTION_DDOT":0},{"OBJECT_NAME":"ONEWEB-0322","OBJECT_ID":"2021-083G","EPOCH":"2025-10-10T05:12:04.735872","MEAN_MOTION":13.13470824,"ECCENTRICITY":0.00017619,"INCLINATION":87.9042,"RA_OF_ASC_NODE":9.9299,"ARG_OF_PERICENTER":117.3182,"MEAN_ANOMALY":242.8127,"EPHEMERIS_TYPE":0,"CLASSIFICATION_TYPE":"U","NORAD_CAT_ID":49192,"ELEMENT_SET_NO":999,"REV_AT_EPOCH":19810,"BSTAR":0.00024919649,"MEAN_MOTION_DOT":1.04e-6,"MEAN_MOTION_DDOT":0},{"OBJECT_NAME":"ONEWEB-0324","OBJECT_ID":"2021-083H","EPOCH":"2025-10-10T04:45:56.226816","MEAN_MOTION":13.18685771,"ECCENTRICITY":0.00019249,"INCLINATION":87.9231,"RA_OF_ASC_NODE":25.091,"ARG_OF_PERICENTER":100.7219,"MEAN_ANOMALY":259.413,"EPHEMERIS_TYPE":0,"CLASSIFICATION_TYPE":"U","NORAD_CAT_ID":49193,"ELEMENT_SET_NO":999,"REV_AT_EPOCH":19705,"BSTAR":-0.00070247462,"MEAN_MOTION_DOT":-2.64e-6,"MEAN_MOTION_DDOT":0},{"OBJECT_NAME":"ONEWEB-0325","OBJECT_ID":"2021-083J","EPOCH":"2025-10-10T06:39:58.821696","MEAN_MOTION":13.18686505,"ECCENTRICITY":0.00017497,"INCLINATION":87.9229,"RA_OF_ASC_NODE":25.0931,"ARG_OF_PERICENTER":103.0241,"MEAN_ANOMALY":257.1087,"EPHEMERIS_TYPE":0,"CLASSIFICATION_TYPE":"U","NORAD_CAT_ID":49194,"ELEMENT_SET_NO":999,"REV_AT_EPOCH":19707,"BSTAR":9.8218939e-5,"MEAN_MOTION_DOT":5.2e-7,"MEAN_MOTION_DDOT":0},{"OBJECT_NAME":"ONEWEB-0326","OBJECT_ID":"2021-083K","EPOCH":"2025-10-10T07:01:31.613664","MEAN_MOTION":13.18688712,"ECCENTRICITY":0.00016549,"INCLINATION":87.9231,"RA_OF_ASC_NODE":25.078,"ARG_OF_PERICENTER":90.1302,"MEAN_ANOMALY":270.002,"EPHEMERIS_TYPE":0,"CLASSIFICATION_TYPE":"U","NORAD_CAT_ID":49195,"ELEMENT_SET_NO":999,"REV_AT_EPOCH":19706,"BSTAR":0.00029525333,"MEAN_MOTION_DOT":1.29e-6,"MEAN_MOTION_DDOT":0},{"OBJECT_NAME":"ONEWEB-0327","OBJECT_ID":"2021-083L","EPOCH":"2025-10-10T05:11:53.790720","MEAN_MOTION":13.1868646,"ECCENTRICITY":0.00015401,"INCLINATION":87.9221,"RA_OF_ASC_NODE":25.1174,"ARG_OF_PERICENTER":89.2448,"MEAN_ANOMALY":270.8861,"EPHEMERIS_TYPE":0,"CLASSIFICATION_TYPE":"U","NORAD_CAT_ID":49196,"ELEMENT_SET_NO":999,"REV_AT_EPOCH":19707,"BSTAR":3.8349243e-5,"MEAN_MOTION_DOT":2.8e-7,"MEAN_MOTION_DDOT":0},{"OBJECT_NAME":"ONEWEB-0328","OBJECT_ID":"2021-083M","EPOCH":"2025-10-10T04:57:26.034912","MEAN_MOTION":13.1347083,"ECCENTRICITY":0.00019649,"INCLINATION":87.905,"RA_OF_ASC_NODE":9.8718,"ARG_OF_PERICENTER":99.9574,"MEAN_ANOMALY":260.1777,"EPHEMERIS_TYPE":0,"CLASSIFICATION_TYPE":"U","NORAD_CAT_ID":49197,"ELEMENT_SET_NO":999,"REV_AT_EPOCH":19808,"BSTAR":-0.00046097597,"MEAN_MOTION_DOT":-1.56e-6,"MEAN_MOTION_DDOT":0},{"OBJECT_NAME":"ONEWEB-0331","OBJECT_ID":"2021-083N","EPOCH":"2025-10-10T06:51:50.827680","MEAN_MOTION":13.18687143,"ECCENTRICITY":0.00019295,"INCLINATION":87.9233,"RA_OF_ASC_NODE":25.0716,"ARG_OF_PERICENTER":89.8631,"MEAN_ANOMALY":270.2722,"EPHEMERIS_TYPE":0,"CLASSIFICATION_TYPE":"U","NORAD_CAT_ID":49198,"ELEMENT_SET_NO":999,"REV_AT_EPOCH":19707,"BSTAR":0.00022074724,"MEAN_MOTION_DOT":1.0e-6,"MEAN_MOTION_DDOT":0},{"OBJECT_NAME":"ONEWEB-0333","OBJECT_ID":"2021-083P","EPOCH":"2025-10-10T04:50:07.376064","MEAN_MOTION":13.1346928,"ECCENTRICITY":0.00017091,"INCLINATION":87.9036,"RA_OF_ASC_NODE":9.9367,"ARG_OF_PERICENTER":102.114,"MEAN_ANOMALY":258.0181,"EPHEMERIS_TYPE":0,"CLASSIFICATION_TYPE":"U","NORAD_CAT_ID":49199,"ELEMENT_SET_NO":999,"REV_AT_EPOCH":19809,"BSTAR":-0.00051364593,"MEAN_MOTION_DOT":-1.75e-6,"MEAN_MOTION_DDOT":0}]
